SENTINEL-6              
1 46984U 20086A   24114.89080098 -.00000038  00000+0  10102-3 0  9999
2 46984  66.0421 324.0450 0007758 270.8211  89.1915 12.80930229159877
